[{"OBJECT_NAME":"HONGHU 2","OBJECT_ID":"2023-193C","EPOCH":"2026-03-09T23:21:07.139520","MEAN_MOTION":15.21543878,"ECCENTRICITY":0.00399876,"INCLINATION":97.2779,"RA_OF_ASC_NODE":62.3901,"ARG_OF_PERICENTER":264.1736,"MEAN_ANOMALY":95.4941,"EPHEMERIS_TYPE":0,"CLASSIFICATION_TYPE":"U","NORAD_CAT_ID":58555,"ELEMENT_SET_NO":999,"REV_AT_EPOCH":8691,"BSTAR":0.0061775359,"MEAN_MOTION_DOT":0.00144707,"MEAN_MOTION_DDOT":0},{"OBJECT_NAME":"STARLINK-32851","OBJECT_ID":"2025-018E","EPOCH":"2026-03-09T21:56:32.024256","MEAN_MOTION":15.30198638,"ECCENTRICITY":0.00011999,"INCLINATION":53.1622,"RA_OF_ASC_NODE":308.4855,"ARG_OF_PERICENTER":102.3095,"MEAN_ANOMALY":257.804,"EPHEMERIS_TYPE":0,"CLASSIFICATION_TYPE":"U","NORAD_CAT_ID":62810,"ELEMENT_SET_NO":999,"REV_AT_EPOCH":6320,"BSTAR":0.00080600521,"MEAN_MOTION_DOT":0.00023587,"MEAN_MOTION_DDOT":0}]
